     2              NAVIGATION DATA                         RINEX VERSION / TYPE
CCRINEXN V1.6.0 UX  CDDIS               09-DEC-16 17:31     PGM / RUN BY / DATE 
IGS BROADCAST EPHEMERIS FILE                                COMMENT             
    0.9313D-08 -0.1490D-07 -0.5960D-07  0.1192D-06          ION ALPHA           
    0.9626D+05 -0.1475D+06 -0.1311D+06  0.9175D+06          ION BETA            
    0.186264514923D-08 0.355271367880D-14   503808     1926 DELTA-UTC: A0,A1,T,W
    17                                                      LEAP SECONDS        
                                                            END OF HEADER       
19 16 12  8  9 59 44.0-0.518504064530D-03 0.795807864051D-12 0.000000000000D+00
    0.210000000000D+02 0.197500000000D+02 0.436161025000D-08 0.552406176106D+00
    0.115483999252D-05 0.102646820014D-01 0.718794763088D-05 0.515363853073D+04
    0.381584000000D+06-0.113621354103D-06-0.343449435465D+00 0.137835741043D-06
    0.975824278724D+00 0.251406250000D+03 0.894657933705D+00-0.817462622028D-08
    0.246438836595D-09 0.100000000000D+01 0.192600000000D+04 0.000000000000D+00
    0.200000000000D+01 0.000000000000D+00-0.149011611938D-07 0.210000000000D+02
    0.381000000000D+06 0.400000000000D+01 0.000000000000D+00 0.000000000000D+00
24 16 12  8  9 59 44.0-0.272081233561D-04-0.568434188608D-12 0.000000000000D+00
    0.000000000000D+00 0.153750000000D+02 0.506985403691D-08 0.187426273214D+01
    0.786036252975D-06 0.513806543313D-02 0.480003654957D-05 0.515371218491D+04
    0.381584000000D+06-0.689178705216D-07-0.256117050639D+01 0.100582838059D-06
    0.947495800535D+00 0.278656250000D+03 0.408372344199D+00-0.855857078454D-08
   -0.166078346401D-09 0.100000000000D+01 0.192600000000D+04 0.000000000000D+00
    0.200000000000D+01 0.000000000000D+00 0.232830643654D-08 0.000000000000D+00
    0.379680000000D+06 0.400000000000D+01 0.000000000000D+00 0.000000000000D+00
 1 16 12  8 10  0  0.0 0.429693609476D-04 0.125055521494D-11 0.000000000000D+00
    0.122000000000D+03-0.401562500000D+02 0.482412951579D-08 0.158344206131D+01
   -0.203028321266D-05 0.603078142740D-02 0.516325235367D-05 0.515369439507D+04
    0.381600000000D+06-0.502914190292D-07 0.614536978412D+00 0.122934579849D-06
    0.965978420193D+00 0.283187500000D+03 0.562088762739D+00-0.833427572747D-08
   -0.492877673191D-10 0.100000000000D+01 0.192600000000D+04 0.000000000000D+00
    0.200000000000D+01 0.000000000000D+00 0.512227416039D-08 0.122000000000D+03
    0.376620000000D+06 0.400000000000D+01 0.000000000000D+00 0.000000000000D+00
 2 16 12  8 10  0  0.0 0.513817183673D-03-0.579802872380D-11 0.000000000000D+00
    0.390000000000D+02-0.490000000000D+02 0.512342769704D-08 0.204733664802D+01
   -0.287033617497D-05 0.162529244553D-01 0.546127557754D-05 0.515368772888D+04
    0.381600000000D+06-0.104308128357D-06 0.564810445754D+00-0.407919287682D-06
    0.944862973701D+00 0.266781250000D+03-0.205878107078D+01-0.834034740895D-08
   -0.210723063176D-10 0.100000000000D+01 0.192600000000D+04 0.000000000000D+00
    0.200000000000D+01 0.000000000000D+00-0.200234353542D-07 0.390000000000D+02
    0.377760000000D+06 0.400000000000D+01 0.000000000000D+00 0.000000000000D+00
 3 16 12  8 10  0  0.0-0.101825688034D-03-0.159161572810D-11 0.000000000000D+00
    0.520000000000D+02-0.415937500000D+02 0.456626163170D-08 0.181192526047D+00
   -0.216998159885D-05 0.388953601941D-03 0.101644545794D-04 0.515356618309D+04
    0.381600000000D+06-0.111758708954D-07 0.165662026358D+01 0.335276126862D-07
    0.959121930890D+00 0.181593750000D+03 0.893128708864D+00-0.798604693662D-08
   -0.222152110670D-09 0.100000000000D+01 0.192600000000D+04 0.000000000000D+00
    0.200000000000D+01 0.000000000000D+00 0.186264514923D-08 0.520000000000D+02
    0.374400000000D+06 0.400000000000D+01 0.000000000000D+00 0.000000000000D+00
 5 16 12  8 10  0  0.0-0.733830966055D-04 0.227373675443D-11 0.000000000000D+00
    0.530000000000D+02-0.292812500000D+02 0.480198592001D-08-0.176560480780D+01
   -0.158697366715D-05 0.489556824323D-02 0.103339552879D-04 0.515364640617D+04
    0.381600000000D+06 0.409781932831D-07 0.164209404004D+01-0.484287738800D-07
    0.946128715293D+00 0.172687500000D+03 0.563868415748D+00-0.808247957451D-08
   -0.187150656083D-09 0.100000000000D+01 0.192600000000D+04 0.000000000000D+00
    0.200000000000D+01 0.000000000000D+00-0.107102096081D-07 0.530000000000D+02
    0.374400000000D+06 0.000000000000D+00 0.000000000000D+00 0.000000000000D+00
 6 16 12  8 10  0  0.0 0.283206813037D-03 0.500222085975D-11 0.000000000000D+00
    0.410000000000D+02-0.453437500000D+02 0.470483883257D-08 0.202731568076D+01
   -0.235810875893D-05 0.380109879188D-03 0.551156699657D-05 0.515357449913D+04
    0.381600000000D+06-0.428408384323D-07 0.606148620775D+00-0.391155481338D-07
    0.965784997553D+00 0.273375000000D+03-0.151827553429D+01-0.822855703814D-08
   -0.878608026122D-10 0.100000000000D+01 0.192600000000D+04 0.000000000000D+00
    0.200000000000D+01 0.000000000000D+00 0.419095158577D-08 0.410000000000D+02
    0.374670000000D+06 0.400000000000D+01 0.000000000000D+00 0.000000000000D+00
 7 16 12  8 10  0  0.0 0.404026359320D-03-0.341060513165D-11 0.000000000000D+00
    0.177000000000D+03 0.103125000000D+02 0.466340853540D-08 0.946240087246D+00
    0.603497028351D-06 0.100465627620D-01 0.496767461300D-05 0.515361754990D+04
    0.381600000000D+06-0.856816768646D-07-0.251066031778D+01 0.113621354103D-06
    0.964415293688D+00 0.286375000000D+03-0.261345166999D+01-0.838284917932D-08
   -0.217151902391D-09 0.100000000000D+01 0.192600000000D+04 0.000000000000D+00
    0.280000000000D+01 0.000000000000D+00-0.111758708954D-07 0.177000000000D+03
    0.374400000000D+06 0.400000000000D+01 0.000000000000D+00 0.000000000000D+00
 8 16 12  8 10  0  0.0-0.416724942625D-04-0.136424205266D-11 0.000000000000D+00
    0.148000000000D+03 0.211250000000D+02 0.455411826873D-08-0.182841543691D+01
    0.124610960484D-05 0.218262360431D-02 0.827573239803D-05 0.515355239296D+04
    0.381600000000D+06-0.104308128357D-06-0.446926536376D+00-0.242143869400D-07
    0.965431054764D+00 0.224281250000D+03-0.976203467090D+00-0.809426573009D-08
    0.369658254893D-09 0.100000000000D+01 0.192600000000D+04 0.000000000000D+00
    0.290000000000D+01 0.000000000000D+00 0.512227416039D-08 0.148000000000D+03
    0.374400000000D+06 0.400000000000D+01 0.000000000000D+00 0.000000000000D+00
 9 16 12  8 10  0  0.0 0.259569846094D-03 0.738964445190D-11 0.000000000000D+00
    0.430000000000D+02 0.623125000000D+02 0.464412201775D-08-0.235922995889D+01
    0.322982668877D-05 0.787015305832D-03 0.871904194355D-05 0.515373469925D+04
    0.381600000000D+06-0.149011611938D-07 0.269438151528D+01 0.186264514923D-08
    0.954334442237D+00 0.209437500000D+03 0.176041080786D+01-0.812140971789D-08
    0.127148153374D-09 0.100000000000D+01 0.192600000000D+04 0.000000000000D+00
    0.200000000000D+01 0.000000000000D+00 0.139698386192D-08 0.430000000000D+02
    0.381450000000D+06 0.400000000000D+01 0.000000000000D+00 0.000000000000D+00
10 16 12  8 10  0  0.0-0.115922186524D-03-0.227373675443D-12 0.000000000000D+00
    0.410000000000D+02-0.450000000000D+02 0.448018661776D-08-0.439578829903D+00
   -0.249780714512D-05 0.197992369067D-02 0.113062560558D-04 0.515367965698D+04
    0.381600000000D+06 0.838190317154D-07 0.165278250281D+01 0.372529029846D-08
    0.959322434053D+00 0.161750000000D+03-0.295327407803D+01-0.799569019545D-08
   -0.342514267094D-09 0.100000000000D+01 0.192600000000D+04 0.000000000000D+00
    0.200000000000D+01 0.000000000000D+00 0.232830643654D-08 0.410000000000D+02
    0.374400000000D+06 0.400000000000D+01 0.000000000000D+00 0.000000000000D+00
11 16 12  8 10  0  0.0-0.673268921673D-03-0.909494701773D-12 0.000000000000D+00
    0.106000000000D+03-0.425000000000D+01 0.647026951270D-08 0.101305090493D+01
   -0.450760126114D-06 0.167074432829D-01 0.473298132420D-05 0.515368427467D+04
    0.381600000000D+06-0.283122062683D-06 0.223975208324D+00-0.188127160072D-06
    0.899091119691D+00 0.258437500000D+03 0.160470848973D+01-0.932003107385D-08
    0.205365697163D-09 0.100000000000D+01 0.192600000000D+04 0.000000000000D+00
    0.570000000000D+01 0.000000000000D+00-0.121071934700D-07 0.106000000000D+03
    0.374460000000D+06 0.400000000000D+01 0.000000000000D+00 0.000000000000D+00
12 16 12  8 10  0  0.0 0.389449764043D-03-0.113686837722D-12 0.000000000000D+00
    0.960000000000D+02-0.129687500000D+02 0.378658615574D-08 0.360036091348D+00
   -0.828877091408D-06 0.613794382662D-02 0.996515154839D-05 0.515362367630D+04
    0.381600000000D+06-0.558793544769D-08-0.142990138020D+01 0.100582838059D-06
    0.989738844516D+00 0.206625000000D+03 0.778424454857D+00-0.783604026111D-08
   -0.144648876210D-09 0.100000000000D+01 0.192600000000D+04 0.000000000000D+00
    0.280000000000D+01 0.000000000000D+00-0.125728547573D-07 0.960000000000D+02
    0.374400000000D+06 0.000000000000D+00 0.000000000000D+00 0.000000000000D+00
13 16 12  8 10  0  0.0-0.589387491345D-04-0.193267624127D-11 0.000000000000D+00
    0.310000000000D+02 0.723750000000D+02 0.430267922386D-08 0.198086627478D+01
    0.376999378204D-05 0.405479827896D-02 0.800192356110D-05 0.515368826485D+04
    0.381600000000D+06 0.145286321640D-06 0.281798676414D+01 0.782310962677D-07
    0.970626023156D+00 0.230343750000D+03 0.188118812781D+01-0.795890294883D-08
    0.212151694112D-09 0.100000000000D+01 0.192600000000D+04 0.000000000000D+00
    0.200000000000D+01 0.000000000000D+00-0.111758708954D-07 0.310000000000D+02
    0.374400000000D+06 0.400000000000D+01 0.000000000000D+00 0.000000000000D+00
